[
    {
        "name": "SAINT PAUL EN GATINE",
        "zip_code": 79240
    },
    {
        "name": "FAYE L ABBESSE",
        "zip_code": 79350
    },
    {
        "name": "ECHIRE",
        "zip_code": 79410
    },
    {
        "name": "SAINT JACQUES DE THOUARS",
        "zip_code": 79100
    },
    {
        "name": "MONCOUTANT SUR SEVRE",
        "zip_code": 79240
    },
    {
        "name": "SCIECQ",
        "zip_code": 79000
    },
    {
        "name": "SAINT GENEROUX",
        "zip_code": 79600
    },
    {
        "name": "TALLUD",
        "zip_code": 79200
    },
    {
        "name": "LAGEON",
        "zip_code": 79200
    },
    {
        "name": "IRAIS",
        "zip_code": 79600
    },
    {
        "name": "FRONTENAY ROHAN ROHAN",
        "zip_code": 79270
    },
    {
        "name": "SAINTE GEMME",
        "zip_code": 79330
    },
    {
        "name": "PAS DE JEU",
        "zip_code": 79100
    },
    {
        "name": "SAINT MAURICE LA FOUGEREUSE",
        "zip_code": 79150
    },
    {
        "name": "PERS",
        "zip_code": 79190
    },
    {
        "name": "CHENAY",
        "zip_code": 79120
    },
    {
        "name": "SAINTE EANNE",
        "zip_code": 79800
    },
    {
        "name": "CHAPELLE POUILLOUX",
        "zip_code": 79190
    },
    {
        "name": "SELIGNE",
        "zip_code": 79170
    },
    {
        "name": "RETAIL",
        "zip_code": 79130
    },
    {
        "name": "MOTHE SAINT HERAY",
        "zip_code": 79800
    },
    {
        "name": "VAL DU MIGNON",
        "zip_code": 79360
    },
    {
        "name": "SAINT MARTIN DE SANZAY",
        "zip_code": 79290
    },
    {
        "name": "VAL DU MIGNON",
        "zip_code": 79210
    },
    {
        "name": "CHERVEUX",
        "zip_code": 79410
    }, {
        "name": "PARTHENAY",
        "zip_code": 79200
    },
    {
        "name": "PIERREFITTE",
        "zip_code": 79330
    },
    {
        "name": "SAINT GELAIS",
        "zip_code": 79410
    },
    {
        "name": "SAINTE NEOMAYE",
        "zip_code": 79260
    },
    {
        "name": "PRAILLES",
        "zip_code": 79800
    },
    {
        "name": "ENSIGNE",
        "zip_code": 79170
    },
    {
        "name": "MESSE",
        "zip_code": 79120
    },
    {
        "name": "CHAURAY",
        "zip_code": 79180
    },
    {
        "name": "SAINT MARTIN DE BERNEGOUE",
        "zip_code": 79230
    },
    {
        "name": "CHERIGNE",
        "zip_code": 79170
    },
    {
        "name": "SAINT ROMANS DES CHAMPS",
        "zip_code": 79230
    },
    {
        "name": "SAINT VARENT",
        "zip_code": 79330
    },
    {
        "name": "SAIVRES",
        "zip_code": 79400
    },
    {
        "name": "SOUVIGNE",
        "zip_code": 79800
    },
    {
        "name": "ADILLY",
        "zip_code": 79200
    },
    {
        "name": "BOISME",
        "zip_code": 79300
    },
    {
        "name": "CLUSSAIS LA POMMERAIE",
        "zip_code": 79190
    },
    {
        "name": "GLENAY",
        "zip_code": 79330
    },
    {
        "name": "LUCHE SUR BRIOUX",
        "zip_code": 79170
    },
    {
        "name": "ARGENTONNAY",
        "zip_code": 79150
    },
    {
        "name": "SAINT GEORGES DE NOISNE",
        "zip_code": 79400
    },
    {
        "name": "BRULAIN",
        "zip_code": 79230
    },
    {
        "name": "VERRUYES",
        "zip_code": 79310
    },
    {
        "name": "VANCAIS",
        "zip_code": 79120
    },
    {
        "name": "CHAPELLE BERTRAND",
        "zip_code": 79200
    },
  {
        "name": "GENNETON",
        "zip_code": 79150
    },
    {
        "name": "FONTENILLE SAINT MARTIN D ENTRAIGUES",
        "zip_code": 79110
    },
    {
        "name": "AVON",
        "zip_code": 79800
    },
    {
        "name": "COURS",
        "zip_code": 79220
    },
    {
        "name": "LIMALONGES",
        "zip_code": 79190
    },
    {
        "name": "MARCILLE",
        "zip_code": 79500
    },
    {
        "name": "SAINT SYMPHORIEN",
        "zip_code": 79270
    },
    {
        "name": "VILLIERS EN PLAINE",
        "zip_code": 79160
    },
    {
        "name": "SAINT MARTIN DU FOUILLOUX",
        "zip_code": 79420
    },
    {
        "name": "BESSINES",
        "zip_code": 79000
    },
    {
        "name": "NEUVY BOUIN",
        "zip_code": 79130
    },
    {
        "name": "PUIHARDY",
        "zip_code": 79160
    },
    {
        "name": "VILLIERS EN BOIS",
        "zip_code": 79360
    },
    {
        "name": "PRAILLES",
        "zip_code": 79370
    },
    {
        "name": "OROUX",
        "zip_code": 79390
    },
    {
        "name": "AMAILLOUX",
        "zip_code": 79350
    },
    {
        "name": "FERRIERE EN PARTHENAY",
        "zip_code": 79390
    },
    {
        "name": "MOUGON",
        "zip_code": 79370
    },
    {
        "name": "SAINT PARDOUX",
        "zip_code": 79310
    },
    {
        "name": "BEAUVOIR SUR NIORT",
        "zip_code": 79360
    },
    {
        "name": "ALLONNE",
        "zip_code": 79130
    },
    {
        "name": "LORIGNE",
        "zip_code": 79190
    },
    {
        "name": "REFFANNES",
        "zip_code": 79420
    },
    {
        "name": "SAINTE OUENNE",
        "zip_code": 79220
    },
    {
        "name": "GRANZAY GRIPT",
        "zip_code": 79360
    },
 {
        "name": "LUSSERAY",
        "zip_code": 79170
    },
    {
        "name": "PERIGNE",
        "zip_code": 79170
    },
    {
        "name": "BOUGON",
        "zip_code": 79800
    },
    {
        "name": "VILLIERS SUR CHIZE",
        "zip_code": 79170
    },
    {
        "name": "SAINT MAIXENT DE BEUGNE",
        "zip_code": 79160
    },
    {
        "name": "MAGNE",
        "zip_code": 79460
    },
    {
        "name": "NIORT",
        "zip_code": 79000
    },
    {
        "name": "FENIOUX",
        "zip_code": 79160
    },
    {
        "name": "MAISONNAY",
        "zip_code": 79500
    },
    {
        "name": "MARNES",
        "zip_code": 79600
    },
    {
        "name": "BOURDET",
        "zip_code": 79210
    },
    {
        "name": "FENERY",
        "zip_code": 79450
    },
    {
        "name": "AMURE",
        "zip_code": 79210
    },
    {
        "name": "TOURTENAY",
        "zip_code": 79100
    },
    {
        "name": "LUZAY",
        "zip_code": 79100
    },
    {
        "name": "VOULMENTIN",
        "zip_code": 79150
    },
    {
        "name": "VOUILLE",
        "zip_code": 79230
    },
    {
        "name": "BRION PRES THOUET",
        "zip_code": 79290
    },
    {
        "name": "CHEY",
        "zip_code": 79120
    },
    {
        "name": "SOUDAN",
        "zip_code": 79800
    },
    {
        "name": "XAINTRAY",
        "zip_code": 79220
    },
    {
        "name": "MONCOUTANT SUR SEVRE",
        "zip_code": 79380
    },
    {
        "name": "SAINT VINCENT LA CHATRE",
        "zip_code": 79500
    },
    {
        "name": "EXIREUIL",
        "zip_code": 79400
    },
    {
        "name": "MONCOUTANT",
        "zip_code": 79240
    },
 {
        "name": "DOUX",
        "zip_code": 79390
    },
    {
        "name": "SECONDIGNY",
        "zip_code": 79130
    },
    {
        "name": "COURLAY",
        "zip_code": 79440
    },
    {
        "name": "THOUARS",
        "zip_code": 79100
    },
    {
        "name": "VANZAY",
        "zip_code": 79120
    },
    {
        "name": "VERT",
        "zip_code": 79170
    },
    {
        "name": "PLAINE ET VALLEES",
        "zip_code": 79100
    },
    {
        "name": "GROSEILLERS",
        "zip_code": 79220
    },
    {
        "name": "ARGENTON LES VALLEES",
        "zip_code": 79300
    },
    {
        "name": "ALLOINAY",
        "zip_code": 79190
    },
    {
        "name": "SAINT ROMANS LES MELLE",
        "zip_code": 79500
    },
    {
        "name": "CHAIL",
        "zip_code": 79110
    },
    {
        "name": "MAZIERES EN GATINE",
        "zip_code": 79310
    },
    {
        "name": "SAINT REMY",
        "zip_code": 79410
    },
    {
        "name": "BOISSIERE EN GATINE",
        "zip_code": 79310
    },
    {
        "name": "CHATELIERS",
        "zip_code": 79340
    },
    {
        "name": "MAISONTIERS",
        "zip_code": 79600
    },
    {
        "name": "LEZAY",
        "zip_code": 79120
    },
    {
        "name": "BEUGNON THIREUIL",
        "zip_code": 79160
    },
    {
        "name": "FORGES",
        "zip_code": 79340
    },
    {
        "name": "BEAUSSAIS VITRE",
        "zip_code": 79370
    },
    {
        "name": "AUBIGNY",
        "zip_code": 79390
    },
    {
        "name": "CHANTELOUP",
        "zip_code": 79320
    },
    {
        "name": "VAUSSEROUX",
        "zip_code": 79420
    },
    {
        "name": "LUCHE THOUARSAIS",
        "zip_code": 79330
    },
  {
        "name": "PEYRATTE",
        "zip_code": 79200
    },
    {
        "name": "SEPVRET",
        "zip_code": 79120
    },
    {
        "name": "LOUIN",
        "zip_code": 79600
    },
    {
        "name": "BRESSUIRE",
        "zip_code": 79300
    },
    {
        "name": "SAINT HILAIRE LA PALUD",
        "zip_code": 79210
    },
    {
        "name": "AUGE",
        "zip_code": 79400
    },
    {
        "name": "CELLES SUR BELLE",
        "zip_code": 79370
    },
    {
        "name": "JUILLE",
        "zip_code": 79170
    },
    {
        "name": "CERSAY",
        "zip_code": 79290
    },
    {
        "name": "PAMPROUX",
        "zip_code": 79800
    },
    {
        "name": "PIN",
        "zip_code": 79140
    },
    {
        "name": "SAINT COUTANT",
        "zip_code": 79120
    },
    {
        "name": "SURIN",
        "zip_code": 79220
    },
    {
        "name": "GEAY",
        "zip_code": 79330
    },
    {
        "name": "AIGONDIGNE",
        "zip_code": 79370
    },
    {
        "name": "SAINT PIERRE DES ECHAUBROGNES",
        "zip_code": 79700
    },
    {
        "name": "BEAULIEU SOUS PARTHENAY",
        "zip_code": 79420
    },
    {
        "name": "MENIGOUTE",
        "zip_code": 79340
    },
    {
        "name": "NUEIL LES AUBIERS",
        "zip_code": 79250
    },
    {
        "name": "SAINT MARTIN DE SAINT MAIXENT",
        "zip_code": 79400
    },
    {
        "name": "VILLEFOLLET",
        "zip_code": 79170
    },
    {
        "name": "CHIZE",
        "zip_code": 79170
    },
    {
        "name": "FORET SUR SEVRE",
        "zip_code": 79380
    },
    {
        "name": "VALDELAUME",
        "zip_code": 79110
    },
    {
        "name": "SAINT MAIXENT L ECOLE",
        "zip_code": 79400
    },
  {
        "name": "SAINT MARC LA LANDE",
        "zip_code": 79310
    },
    {
        "name": "SAINT PARDOUX SOUTIERS",
        "zip_code": 79310
    },
    {
        "name": "VAUTEBIS",
        "zip_code": 79420
    },
    {
        "name": "VIENNAY",
        "zip_code": 79200
    },
    {
        "name": "LORETZ D ARGENTON",
        "zip_code": 79290
    },
    {
        "name": "SAINTE VERGE",
        "zip_code": 79100
    },
    {
        "name": "VERNOUX EN GATINE",
        "zip_code": 79240
    },
    {
        "name": "MELLE",
        "zip_code": 79500
    },
    {
        "name": "VERNOUX SUR BOUTONNE",
        "zip_code": 79170
    },
    {
        "name": "AZAY SUR THOUET",
        "zip_code": 79130
    },
    {
        "name": "MARIGNY",
        "zip_code": 79360
    },
    {
        "name": "LOUZY",
        "zip_code": 79100
    },
    {
        "name": "ARGENTONNAY",
        "zip_code": 79300
    },
    {
        "name": "ABSIE",
        "zip_code": 79240
    },
    {
        "name": "PLIBOUX",
        "zip_code": 79190
    },
    {
        "name": "FONTIVILLIE",
        "zip_code": 79110
    },
    {
        "name": "AVAILLES THOUARSAIS",
        "zip_code": 79600
    },
    {
        "name": "SAINT LAURS",
        "zip_code": 79160
    },
    {
        "name": "SAINT AMAND SUR SEVRE",
        "zip_code": 79700
    },
    {
        "name": "CHICHE",
        "zip_code": 79350
    },
    {
        "name": "COUTIERES",
        "zip_code": 79340
    },
    {
        "name": "ARCAIS",
        "zip_code": 79210
    },
    {
        "name": "FOSSES",
        "zip_code": 79360
    },
    {
        "name": "EPANNES",
        "zip_code": 79270
    },
    {
        "name": "LHOUMOIS",
        "zip_code": 79390
    },
   {
        "name": "CHAPELLE SAINT LAURENT",
        "zip_code": 79430
    },
    {
        "name": "SAURAIS",
        "zip_code": 79200
    },
    {
        "name": "ASNIERES EN POITOU",
        "zip_code": 79170
    },
    {
        "name": "COUTURE D ARGENSON",
        "zip_code": 79110
    },
    {
        "name": "ASSAIS LES JUMEAUX",
        "zip_code": 79600
    },
    {
        "name": "ARGENTON L EGLISE",
        "zip_code": 79290
    },
    {
        "name": "CRECHE",
        "zip_code": 79260
    },
    {
        "name": "ALLOINAY",
        "zip_code": 79110
    },
    {
        "name": "CERIZAY",
        "zip_code": 79140
    },
    {
        "name": "CHAIL",
        "zip_code": 79500
    },
    {
        "name": "EXOUDUN",
        "zip_code": 79800
    },
    {
        "name": "FORS",
        "zip_code": 79230
    },
    {
        "name": "OIRON",
        "zip_code": 79600
    },
    {
        "name": "BRIEUIL SUR CHIZE",
        "zip_code": 79170
    },
    {
        "name": "FONTIVILLIE",
        "zip_code": 79500
    },
    {
        "name": "TRAYES",
        "zip_code": 79240
    },
    {
        "name": "SAINT ANDRE SUR SEVRE",
        "zip_code": 79380
    },
    {
        "name": "PETITE BOISSIERE",
        "zip_code": 79700
    },
    {
        "name": "PRAILLES LA COUARDE",
        "zip_code": 79800
    },
    {
        "name": "CHAPELLE THIREUIL",
        "zip_code": 79130
    },
    {
        "name": "SAINT AUBIN DU PLAIN",
        "zip_code": 79300
    },
    {
        "name": "SAINT CYR LA LANDE",
        "zip_code": 79100
    },
    {
        "name": "ROM",
        "zip_code": 79120
    },
    {
        "name": "PRAILLES LA COUARDE",
        "zip_code": 79370
    },
    {
        "name": "MONCOUTANT",
        "zip_code": 79320
    },
  {
        "name": "BUSSEAU",
        "zip_code": 79240
    },
    {
        "name": "FRANCOIS",
        "zip_code": 79260
    },
    {
        "name": "MAULEON",
        "zip_code": 79700
    },
    {
        "name": "SAINT LEGER DE MONTBRUN",
        "zip_code": 79100
    },
    {
        "name": "VASLES",
        "zip_code": 79340
    },
    {
        "name": "USSEAU",
        "zip_code": 79210
    },
    {
        "name": "BRETIGNOLLES",
        "zip_code": 79140
    },
    {
        "name": "FAYE SUR ARDIN",
        "zip_code": 79160
    },
    {
        "name": "MONCOUTANT",
        "zip_code": 79380
    },
    {
        "name": "SAINT GERMIER",
        "zip_code": 79340
    },
    {
        "name": "SAINT MAURICE ETUSSON",
        "zip_code": 79150
    },
    {
        "name": "CLAVE",
        "zip_code": 79420
    },
    {
        "name": "AIRVAULT",
        "zip_code": 79600
    },
    {
        "name": "PAIZAY LE CHAPT",
        "zip_code": 79170
    },
    {
        "name": "ROCHENARD",
        "zip_code": 79270
    },
    {
        "name": "SAUZE VAUSSAIS",
        "zip_code": 79190
    },
    {
        "name": "POMPAIRE",
        "zip_code": 79200
    },
    {
        "name": "SAINT JEAN DE THOUARS",
        "zip_code": 79100
    },
    {
        "name": "FOYE MONJAULT",
        "zip_code": 79360
    },
    {
        "name": "BOUSSAIS",
        "zip_code": 79600
    },
    {
        "name": "AIFFRES",
        "zip_code": 79230
    },
    {
        "name": "SAINTE SOLINE",
        "zip_code": 79120
    },
    {
        "name": "AZAY LE BRULE",
        "zip_code": 79400
    },
    {
        "name": "LOUBILLE",
        "zip_code": 79110
    },
    {
        "name": "MAIRE LEVESCAULT",
        "zip_code": 79190
    },
 {
        "name": "NANTEUIL",
        "zip_code": 79400
    },
    {
        "name": "PRAHECQ",
        "zip_code": 79230
    },
    {
        "name": "GERMOND ROUVRE",
        "zip_code": 79220
    },
    {
        "name": "CERSAY",
        "zip_code": 79150
    },
    {
        "name": "SCILLE",
        "zip_code": 79240
    },
    {
        "name": "MONTRAVERS",
        "zip_code": 79140
    },
    {
        "name": "COMBRAND",
        "zip_code": 79140
    },
    {
        "name": "USSEAU",
        "zip_code": 79360
    },
    {
        "name": "MAUZE SUR LE MIGNON",
        "zip_code": 79210
    },
    {
        "name": "BECELEUF",
        "zip_code": 79160
    },
    {
        "name": "SAINT GERMAIN DE LONGUE CHAUME",
        "zip_code": 79200
    },
    {
        "name": "MONCOUTANT SUR SEVRE",
        "zip_code": 79320
    },
    {
        "name": "COULON",
        "zip_code": 79510
    },
    {
        "name": "CHEF BOUTONNE",
        "zip_code": 79110
    },
    {
        "name": "OIRON",
        "zip_code": 79100
    },
    {
        "name": "SAINT AUBIN LE CLOUD",
        "zip_code": 79450
    },
    {
        "name": "SECONDIGNE SUR BELLE",
        "zip_code": 79170
    },
    {
        "name": "ROMANS",
        "zip_code": 79260
    },
    {
        "name": "CHAPELLE THIREUIL",
        "zip_code": 79160
    },
    {
        "name": "FOMPERRON",
        "zip_code": 79340
    },
    {
        "name": "MELLERAN",
        "zip_code": 79190
    },
    {
        "name": "THENEZAY",
        "zip_code": 79390
    },
    {
        "name": "VOUHE",
        "zip_code": 79310
    },
    {
        "name": "ARGENTON LES VALLEES",
        "zip_code": 79150
    },
    {
        "name": "SAINT LIN",
        "zip_code": 79420
    },
  {
        "name": "SAINT POMPAIN",
        "zip_code": 79160
    },
    {
        "name": "VAL EN VIGNES",
        "zip_code": 79290
    },
    {
        "name": "SANSAIS",
        "zip_code": 79270
    },
    {
        "name": "MONTALEMBERT",
        "zip_code": 79190
    },
    {
        "name": "VALLANS",
        "zip_code": 79270
    },
    {
        "name": "VAL EN VIGNES",
        "zip_code": 79150
    },
    {
        "name": "PLAINE D ARGENSON",
        "zip_code": 79360
    },
    {
        "name": "JUSCORPS",
        "zip_code": 79230
    },
    {
        "name": "PAMPLIE",
        "zip_code": 79220
    },
    {
        "name": "POUGNE HERISSON",
        "zip_code": 79130
    },
    {
        "name": "CHAPELLE BATON",
        "zip_code": 79220
    },
    {
        "name": "CHILLOU",
        "zip_code": 79600
    },
    {
        "name": "SAINT GEORGES DE REX",
        "zip_code": 79210
    },
    {
        "name": "SAINT CHRISTOPHE SUR ROC",
        "zip_code": 79220
    },
    {
        "name": "AUBIGNE",
        "zip_code": 79110
    },
    {
        "name": "VANNEAU IRLEAU",
        "zip_code": 79270
    },
    {
        "name": "GOURGE",
        "zip_code": 79200
    },
    {
        "name": "CAUNAY",
        "zip_code": 79190
    },
    {
        "name": "BRIOUX SUR BOUTONNE",
        "zip_code": 79170
    },
    {
        "name": "CHAMPDENIERS",
        "zip_code": 79220
    },
    {
        "name": "LOUBIGNE",
        "zip_code": 79110
    },
    {
        "name": "SAINT MARTIN DE MACON",
        "zip_code": 79100
    },
    {
        "name": "VILLEMAIN",
        "zip_code": 79110
    },
    {
        "name": "SAINT MAXIRE",
        "zip_code": 79410
    },
    {
        "name": "CHATILLON SUR THOUET",
        "zip_code": 79200
    },
  {
        "name": "SALLES",
        "zip_code": 79800
    },
    {
        "name": "PLAINE ET VALLEES",
        "zip_code": 79600
    },
    {
        "name": "ARDIN",
        "zip_code": 79160
    },
    {
        "name": "COULONGES THOUARSAIS",
        "zip_code": 79330
    },
    {
        "name": "CLESSE",
        "zip_code": 79350
    },
    {
        "name": "PRESSIGNY",
        "zip_code": 79390
    },
    {
        "name": "COULONGES SUR L AUTIZE",
        "zip_code": 79160
    },
    {
        "name": "FRESSINES",
        "zip_code": 79370
    },
    {
        "name": "PRIN DEYRANCON",
        "zip_code": 79210
    },
    {
        "name": "CIRIERES",
        "zip_code": 79140
    },
    {
        "name": "SAINT LOUP LAMAIRE",
        "zip_code": 79600
    },
    {
        "name": "BEUGNON THIREUIL",
        "zip_code": 79130
    },
    {
        "name": "LARGEASSE",
        "zip_code": 79240
    }
]